start=new Date('2022-09-13T00:00:00.000Z').valueOf();
sats=[{"EPHEMERIS_TYPE":"0","OBJECT_ID":"2022-105AP","TLE_LINE2":"2 53685  97.6563 134.0458 0001587 131.2635 288.5921 15.70286107  1308","DECAY_DATE":null,"REF_FRAME":"TEME","SEMIMAJOR_AXIS":"6736.216","REV_AT_EPOCH":"130","CENTER_NAME":"EARTH","PERIAPSIS":"357.012","SITE":"AFWTR","ELEMENT_SET_NO":"999","LAUNCH_DATE":"2022-08-31","OBJECT_TYPE":"PAYLOAD","BSTAR":"0.00018097000000","APOAPSIS":"359.150","NORAD_CAT_ID":"53685","FILE":"3570509","TLE_LINE1":"1 53685U 22105AP  22255.91667824  .00021863  00000-0  18097-3 0  9994","RCS_SIZE":"LARGE","ARG_OF_PERICENTER":"131.2635","MEAN_ANOMALY":"288.5921","MEAN_MOTION_DOT":"0.00021863","PERIOD":"91.703","EPOCH":"2022-09-12T22:00:00.999936","RA_OF_ASC_NODE":"134.0458","OBJECT_NAME":"STARLINK-4626","COUNTRY_CODE":"US","CLASSIFICATION_TYPE":"U","MEAN_MOTION":"15.70286107","ECCENTRICITY":"0.00015870","GP_ID":"212434840","INCLINATION":"97.6563","MEAN_ELEMENT_THEORY":"SGP4","MEAN_MOTION_DDOT":"0.0000000000000","TIME_SYSTEM":"UTC"},{"TIME_SYSTEM":"UTC","MEAN_MOTION_DDOT":"0.0000000000000","MEAN_ELEMENT_THEORY":"SGP4","INCLINATION":"97.6555","GP_ID":"212434329","ECCENTRICITY":"0.00014160","MEAN_MOTION":"15.70268458","CLASSIFICATION_TYPE":"U","COUNTRY_CODE":"US","OBJECT_NAME":"STARLINK-4467","RA_OF_ASC_NODE":"134.0473","EPOCH":"2022-09-12T22:00:00.999936","PERIOD":"91.704","MEAN_MOTION_DOT":"0.00047116","MEAN_ANOMALY":"304.2163","ARG_OF_PERICENTER":"117.4248","RCS_SIZE":"LARGE","TLE_LINE1":"1 53686U 22105AQ  22255.91667824  .00047116  00000-0  38787-3 0  9992","FILE":"3570509","NORAD_CAT_ID":"53686","APOAPSIS":"359.085","BSTAR":"0.00038787000000","OBJECT_TYPE":"PAYLOAD","LAUNCH_DATE":"2022-08-31","SITE":"AFWTR","ELEMENT_SET_NO":"999","PERIAPSIS":"357.177","REV_AT_EPOCH":"130","CENTER_NAME":"EARTH","SEMIMAJOR_AXIS":"6736.266","DECAY_DATE":null,"REF_FRAME":"TEME","TLE_LINE2":"2 53686  97.6555 134.0473 0001416 117.4248 304.2163 15.70268458  1307","EPHEMERIS_TYPE":"0","OBJECT_ID":"2022-105AQ"},{"FILE":"3570509","NORAD_CAT_ID":"53687","TLE_LINE1":"1 53687U 22105AR  22255.91667824 -.00013164  00000-0 -10776-3 0  9999","RCS_SIZE":"LARGE","BSTAR":"-0.00010776000000","OBJECT_TYPE":"PAYLOAD","LAUNCH_DATE":"2022-08-31","APOAPSIS":"359.382","SEMIMAJOR_AXIS":"6736.270","CENTER_NAME":"EARTH","REV_AT_EPOCH":"130","PERIAPSIS":"356.888","ELEMENT_SET_NO":"999","SITE":"AFWTR","OBJECT_ID":"2022-105AR","EPHEMERIS_TYPE":"0","REF_FRAME":"TEME","DECAY_DATE":null,"TLE_LINE2":"2 53687  97.6559 134.0463 0001851 145.7520 275.4413 15.70267130  1304","MEAN_ELEMENT_THEORY":"SGP4","INCLINATION":"97.6559","GP_ID":"212434460","TIME_SYSTEM":"UTC","MEAN_MOTION_DDOT":"0.0000000000000","COUNTRY_CODE":"US","OBJECT_NAME":"STARLINK-4569","MEAN_MOTION":"15.70267130","ECCENTRICITY":"0.00018510","CLASSIFICATION_TYPE":"U","RA_OF_ASC_NODE":"134.0463","EPOCH":"2022-09-12T22:00:00.999936","MEAN_ANOMALY":"275.4413","ARG_OF_PERICENTER":"145.7520","MEAN_MOTION_DOT":"-0.00013164","PERIOD":"91.704"},{"CENTER_NAME":"EARTH","REV_AT_EPOCH":"130","SEMIMAJOR_AXIS":"6736.331","SITE":"AFWTR","ELEMENT_SET_NO":"999","PERIAPSIS":"357.036","OBJECT_ID":"2022-105AS","EPHEMERIS_TYPE":"0","TLE_LINE2":"2 53688  97.6557 134.0484 0001722 119.4715 303.4227 15.70245671  1308","DECAY_DATE":null,"REF_FRAME":"TEME","FILE":"3570509","NORAD_CAT_ID":"53688","RCS_SIZE":"LARGE","TLE_LINE1":"1 53688U 22105AS  22255.91667824  .00053945  00000-0  44398-3 0  9996","LAUNCH_DATE":"2022-08-31","OBJECT_TYPE":"PAYLOAD","BSTAR":"0.00044398000000","APOAPSIS":"359.356","EPOCH":"2022-09-12T22:00:00.999936","RA_OF_ASC_NODE":"134.0484","ARG_OF_PERICENTER":"119.4715","MEAN_ANOMALY":"303.4227","PERIOD":"91.705","MEAN_MOTION_DOT":"0.00053945","GP_ID":"212433761","MEAN_ELEMENT_THEORY":"SGP4","INCLINATION":"97.6557","MEAN_MOTION_DDOT":"0.0000000000000","TIME_SYSTEM":"UTC","OBJECT_NAME":"STARLINK-4571","COUNTRY_CODE":"US","CLASSIFICATION_TYPE":"U","ECCENTRICITY":"0.00017220","MEAN_MOTION":"15.70245671"},{"OBJECT_NAME":"STARLINK-4562","COUNTRY_CODE":"US","CLASSIFICATION_TYPE":"U","ECCENTRICITY":"0.00016240","MEAN_MOTION":"15.70242701","GP_ID":"212434619","INCLINATION":"97.6563","MEAN_ELEMENT_THEORY":"SGP4","MEAN_MOTION_DDOT":"0.0000000000000","TIME_SYSTEM":"UTC","ARG_OF_PERICENTER":"121.2995","MEAN_ANOMALY":"300.9877","PERIOD":"91.706","MEAN_MOTION_DOT":"0.00052355","EPOCH":"2022-09-12T22:00:00.999936","RA_OF_ASC_NODE":"134.0472","LAUNCH_DATE":"2022-08-31","OBJECT_TYPE":"PAYLOAD","BSTAR":"0.00043106000000","APOAPSIS":"359.299","FILE":"3570509","NORAD_CAT_ID":"53689","RCS_SIZE":"LARGE","TLE_LINE1":"1 53689U 22105AT  22255.91667824  .00052355  00000-0  43106-3 0  9997","OBJECT_ID":"2022-105AT","EPHEMERIS_TYPE":"0","TLE_LINE2":"2 53689  97.6563 134.0472 0001624 121.2995 300.9877 15.70242701  1309","REF_FRAME":"TEME","DECAY_DATE":null,"REV_AT_EPOCH":"130","CENTER_NAME":"EARTH","SEMIMAJOR_AXIS":"6736.340","ELEMENT_SET_NO":"999","SITE":"AFWTR","PERIAPSIS":"357.111"},{"APOAPSIS":"359.335","LAUNCH_DATE":"2022-08-31","OBJECT_TYPE":"PAYLOAD","BSTAR":"-0.00027236000000","RCS_SIZE":"LARGE","TLE_LINE1":"1 53690U 22105AU  22255.91667824 -.00033031  00000-0 -27236-3 0  9997","FILE":"3570509","NORAD_CAT_ID":"53690","TLE_LINE2":"2 53690  97.6564 134.0494 0001896 120.9475 303.1449 15.70294130  1309","REF_FRAME":"TEME","DECAY_DATE":null,"OBJECT_ID":"2022-105AU","EPHEMERIS_TYPE":"0","SITE":"AFWTR","ELEMENT_SET_NO":"999","PERIAPSIS":"356.781","REV_AT_EPOCH":"130","CENTER_NAME":"EARTH","SEMIMAJOR_AXIS":"6736.193","CLASSIFICATION_TYPE":"U","ECCENTRICITY":"0.00018960","MEAN_MOTION":"15.70294130","OBJECT_NAME":"STARLINK-4570","COUNTRY_CODE":"US","MEAN_MOTION_DDOT":"0.0000000000000","TIME_SYSTEM":"UTC","GP_ID":"212433913","INCLINATION":"97.6564","MEAN_ELEMENT_THEORY":"SGP4","PERIOD":"91.703","MEAN_MOTION_DOT":"-0.00033031","ARG_OF_PERICENTER":"120.9475","MEAN_ANOMALY":"303.1449","EPOCH":"2022-09-12T22:00:00.999936","RA_OF_ASC_NODE":"134.0494"},{"CLASSIFICATION_TYPE":"U","ECCENTRICITY":"0.00013790","MEAN_MOTION":"15.70288520","OBJECT_NAME":"STARLINK-4560","COUNTRY_CODE":"US","MEAN_MOTION_DDOT":"0.0000000000000","TIME_SYSTEM":"UTC","GP_ID":"212434681","MEAN_ELEMENT_THEORY":"SGP4","INCLINATION":"97.6561","PERIOD":"91.703","MEAN_MOTION_DOT":"0.00005755","ARG_OF_PERICENTER":"129.3025","MEAN_ANOMALY":"294.1711","EPOCH":"2022-09-12T22:00:00.999936","RA_OF_ASC_NODE":"134.0474","APOAPSIS":"359.003","OBJECT_TYPE":"PAYLOAD","LAUNCH_DATE":"2022-08-31","BSTAR":"0.00004852400000","RCS_SIZE":"LARGE","TLE_LINE1":"1 53691U 22105AV  22255.91667824  .00005755  00000-0  48524-4 0  9992","FILE":"3570509","NORAD_CAT_ID":"53691","TLE_LINE2":"2 53691  97.6561 134.0474 0001379 129.3025 294.1711 15.70288520  1302","REF_FRAME":"TEME","DECAY_DATE":null,"EPHEMERIS_TYPE":"0","OBJECT_ID":"2022-105AV","ELEMENT_SET_NO":"999","SITE":"AFWTR","PERIAPSIS":"357.145","CENTER_NAME":"EARTH","REV_AT_EPOCH":"130","SEMIMAJOR_AXIS":"6736.209"},{"GP_ID":"212434178","MEAN_ELEMENT_THEORY":"SGP4","INCLINATION":"97.6551","MEAN_MOTION_DDOT":"0.0000000000000","TIME_SYSTEM":"UTC","OBJECT_NAME":"STARLINK-4572","COUNTRY_CODE":"US","CLASSIFICATION_TYPE":"U","MEAN_MOTION":"15.70250979","ECCENTRICITY":"0.00018110","EPOCH":"2022-09-12T22:00:00.999936","RA_OF_ASC_NODE":"134.0498","ARG_OF_PERICENTER":"130.6167","MEAN_ANOMALY":"294.0926","MEAN_MOTION_DOT":"0.00045629","PERIOD":"91.705","NORAD_CAT_ID":"53692","FILE":"3570509","TLE_LINE1":"1 53692U 22105AW  22255.91667824  .00045629  00000-0  37599-3 0  9996","RCS_SIZE":"LARGE","OBJECT_TYPE":"PAYLOAD","LAUNCH_DATE":"2022-08-31","BSTAR":"0.00037599000000","APOAPSIS":"359.401","SEMIMAJOR_AXIS":"6736.316","CENTER_NAME":"EARTH","REV_AT_EPOCH":"130","PERIAPSIS":"356.961","SITE":"AFWTR","ELEMENT_SET_NO":"999","EPHEMERIS_TYPE":"0","OBJECT_ID":"2022-105AW","TLE_LINE2":"2 53692  97.6551 134.0498 0001811 130.6167 294.0926 15.70250979  1305","REF_FRAME":"TEME","DECAY_DATE":null},{"MEAN_MOTION":"15.70295930","ECCENTRICITY":"0.00017150","CLASSIFICATION_TYPE":"U","COUNTRY_CODE":"US","OBJECT_NAME":"STARLINK-4566","TIME_SYSTEM":"UTC","MEAN_MOTION_DDOT":"0.0000000000000","MEAN_ELEMENT_THEORY":"SGP4","INCLINATION":"97.6562","GP_ID":"212434841","MEAN_MOTION_DOT":"-0.00045150","PERIOD":"91.702","MEAN_ANOMALY":"299.3955","ARG_OF_PERICENTER":"125.8937","RA_OF_ASC_NODE":"134.0486","EPOCH":"2022-09-12T22:00:00.999936","APOAPSIS":"359.208","BSTAR":"-0.00037321000000","OBJECT_TYPE":"PAYLOAD","LAUNCH_DATE":"2022-08-31","TLE_LINE1":"1 53693U 22105AX  22255.91667824 -.00045150  00000-0 -37321-3 0  9991","RCS_SIZE":"LARGE","FILE":"3570509","NORAD_CAT_ID":"53693","DECAY_DATE":null,"REF_FRAME":"TEME","TLE_LINE2":"2 53693  97.6562 134.0486 0001715 125.8937 299.3955 15.70295930  1305","OBJECT_ID":"2022-105AX","EPHEMERIS_TYPE":"0","PERIAPSIS":"356.897","ELEMENT_SET_NO":"999","SITE":"AFWTR","SEMIMAJOR_AXIS":"6736.188","REV_AT_EPOCH":"130","CENTER_NAME":"EARTH"}];
